<?xml version="1.0" encoding="UTF-8"?>
<ndm xmlns:xsi="http://www.w3.org/2001/XMLSchema-instance" xsi:noNamespaceSchemaLocation="https://sanaregistry.org/r/ndmxml_unqualified/ndmxml-2.0.0-master-2.0.xsd">
<omm id="CCSDS_OMM_VERS" version="2.0">
<header><CREATION_DATE/><ORIGINATOR/></header><body><segment><metadata><OBJECT_NAME>ORBCOMM FM33 [-]</OBJECT_NAME><OBJECT_ID>1999-065D</OBJECT_ID><CENTER_NAME>EARTH</CENTER_NAME><REF_FRAME>TEME</REF_FRAME><TIME_SYSTEM>UTC</TIME_SYSTEM><MEAN_ELEMENT_THEORY>SGP4</MEAN_ELEMENT_THEORY></metadata><data><meanElements><EPOCH>2023-09-01T08:44:41.937792</EPOCH><MEAN_MOTION>14.36673547</MEAN_MOTION><ECCENTRICITY>.0009329</ECCENTRICITY><INCLINATION>45.0287</INCLINATION><RA_OF_ASC_NODE>223.2362</RA_OF_ASC_NODE><ARG_OF_PERICENTER>359.3498</ARG_OF_PERICENTER><MEAN_ANOMALY>149.4126</MEAN_ANOMALY></meanElements><tleParameters><EPHEMERIS_TYPE>0</EPHEMERIS_TYPE><CLASSIFICATION_TYPE>U</CLASSIFICATION_TYPE><NORAD_CAT_ID>25983</NORAD_CAT_ID><ELEMENT_SET_NO>999</ELEMENT_SET_NO><REV_AT_EPOCH>24187</REV_AT_EPOCH><BSTAR>.41103E-3</BSTAR><MEAN_MOTION_DOT>.108E-4</MEAN_MOTION_DOT><MEAN_MOTION_DDOT>0</MEAN_MOTION_DDOT></tleParameters></data></segment></body></omm>
<omm id="CCSDS_OMM_VERS" version="2.0">
<header><CREATION_DATE/><ORIGINATOR/></header><body><segment><metadata><OBJECT_NAME>ORBCOMM FM36 [-]</OBJECT_NAME><OBJECT_ID>1999-065E</OBJECT_ID><CENTER_NAME>EARTH</CENTER_NAME><REF_FRAME>TEME</REF_FRAME><TIME_SYSTEM>UTC</TIME_SYSTEM><MEAN_ELEMENT_THEORY>SGP4</MEAN_ELEMENT_THEORY></metadata><data><meanElements><EPOCH>2023-09-01T01:41:39.798528</EPOCH><MEAN_MOTION>14.34561928</MEAN_MOTION><ECCENTRICITY>.0005495</ECCENTRICITY><INCLINATION>45.0408</INCLINATION><RA_OF_ASC_NODE>305.7814</RA_OF_ASC_NODE><ARG_OF_PERICENTER>249.7934</ARG_OF_PERICENTER><MEAN_ANOMALY>110.2322</MEAN_ANOMALY></meanElements><tleParameters><EPHEMERIS_TYPE>0</EPHEMERIS_TYPE><CLASSIFICATION_TYPE>U</CLASSIFICATION_TYPE><NORAD_CAT_ID>25984</NORAD_CAT_ID><ELEMENT_SET_NO>999</ELEMENT_SET_NO><REV_AT_EPOCH>24083</REV_AT_EPOCH><BSTAR>.34401E-3</BSTAR><MEAN_MOTION_DOT>.839E-5</MEAN_MOTION_DOT><MEAN_MOTION_DDOT>0</MEAN_MOTION_DDOT></tleParameters></data></segment></body></omm>
<omm id="CCSDS_OMM_VERS" version="2.0">
<header><CREATION_DATE/><ORIGINATOR/></header><body><segment><metadata><OBJECT_NAME>ORBCOMM FM35 [+]</OBJECT_NAME><OBJECT_ID>1999-065F</OBJECT_ID><CENTER_NAME>EARTH</CENTER_NAME><REF_FRAME>TEME</REF_FRAME><TIME_SYSTEM>UTC</TIME_SYSTEM><MEAN_ELEMENT_THEORY>SGP4</MEAN_ELEMENT_THEORY></metadata><data><meanElements><EPOCH>2023-08-31T23:34:55.603200</EPOCH><MEAN_MOTION>14.34276449</MEAN_MOTION><ECCENTRICITY>.0002669</ECCENTRICITY><INCLINATION>45.0409</INCLINATION><RA_OF_ASC_NODE>308.1826</RA_OF_ASC_NODE><ARG_OF_PERICENTER>321.8601</ARG_OF_PERICENTER><MEAN_ANOMALY>38.2057</MEAN_ANOMALY></meanElements><tleParameters><EPHEMERIS_TYPE>0</EPHEMERIS_TYPE><CLASSIFICATION_TYPE>U</CLASSIFICATION_TYPE><NORAD_CAT_ID>25985</NORAD_CAT_ID><ELEMENT_SET_NO>999</ELEMENT_SET_NO><REV_AT_EPOCH>24082</REV_AT_EPOCH><BSTAR>.29671E-3</BSTAR><MEAN_MOTION_DOT>.699E-5</MEAN_MOTION_DOT><MEAN_MOTION_DDOT>0</MEAN_MOTION_DDOT></tleParameters></data></segment></body></omm>
<omm id="CCSDS_OMM_VERS" version="2.0">
<header><CREATION_DATE/><ORIGINATOR/></header><body><segment><metadata><OBJECT_NAME>ORBCOMM FM34 [-]</OBJECT_NAME><OBJECT_ID>1999-065G</OBJECT_ID><CENTER_NAME>EARTH</CENTER_NAME><REF_FRAME>TEME</REF_FRAME><TIME_SYSTEM>UTC</TIME_SYSTEM><MEAN_ELEMENT_THEORY>SGP4</MEAN_ELEMENT_THEORY></metadata><data><meanElements><EPOCH>2023-09-01T10:22:53.744736</EPOCH><MEAN_MOTION>14.34218273</MEAN_MOTION><ECCENTRICITY>.000489</ECCENTRICITY><INCLINATION>45.0404</INCLINATION><RA_OF_ASC_NODE>306.5207</RA_OF_ASC_NODE><ARG_OF_PERICENTER>284.0492</ARG_OF_PERICENTER><MEAN_ANOMALY>75.9811</MEAN_ANOMALY></meanElements><tleParameters><EPHEMERIS_TYPE>0</EPHEMERIS_TYPE><CLASSIFICATION_TYPE>U</CLASSIFICATION_TYPE><NORAD_CAT_ID>25986</NORAD_CAT_ID><ELEMENT_SET_NO>999</ELEMENT_SET_NO><REV_AT_EPOCH>24085</REV_AT_EPOCH><BSTAR>.33312E-3</BSTAR><MEAN_MOTION_DOT>.801E-5</MEAN_MOTION_DOT><MEAN_MOTION_DDOT>0</MEAN_MOTION_DDOT></tleParameters></data></segment></body></omm>
<omm id="CCSDS_OMM_VERS" version="2.0">
<header><CREATION_DATE/><ORIGINATOR/></header><body><segment><metadata><OBJECT_NAME>ORBCOMM FM38 [-]</OBJECT_NAME><OBJECT_ID>2008-031A</OBJECT_ID><CENTER_NAME>EARTH</CENTER_NAME><REF_FRAME>TEME</REF_FRAME><TIME_SYSTEM>UTC</TIME_SYSTEM><MEAN_ELEMENT_THEORY>SGP4</MEAN_ELEMENT_THEORY></metadata><data><meanElements><EPOCH>2023-09-01T02:39:24.958656</EPOCH><MEAN_MOTION>14.75920241</MEAN_MOTION><ECCENTRICITY>.0005231</ECCENTRICITY><INCLINATION>48.4417</INCLINATION><RA_OF_ASC_NODE>182.8394</RA_OF_ASC_NODE><ARG_OF_PERICENTER>113.1017</ARG_OF_PERICENTER><MEAN_ANOMALY>247.0448</MEAN_ANOMALY></meanElements><tleParameters><EPHEMERIS_TYPE>0</EPHEMERIS_TYPE><CLASSIFICATION_TYPE>U</CLASSIFICATION_TYPE><NORAD_CAT_ID>33060</NORAD_CAT_ID><ELEMENT_SET_NO>999</ELEMENT_SET_NO><REV_AT_EPOCH>81781</REV_AT_EPOCH><BSTAR>.27867E-3</BSTAR><MEAN_MOTION_DOT>.173E-4</MEAN_MOTION_DOT><MEAN_MOTION_DDOT>0</MEAN_MOTION_DDOT></tleParameters></data></segment></body></omm>
<omm id="CCSDS_OMM_VERS" version="2.0">
<header><CREATION_DATE/><ORIGINATOR/></header><body><segment><metadata><OBJECT_NAME>ORBCOMM FM41 [-]</OBJECT_NAME><OBJECT_ID>2008-031B</OBJECT_ID><CENTER_NAME>EARTH</CENTER_NAME><REF_FRAME>TEME</REF_FRAME><TIME_SYSTEM>UTC</TIME_SYSTEM><MEAN_ELEMENT_THEORY>SGP4</MEAN_ELEMENT_THEORY></metadata><data><meanElements><EPOCH>2023-08-31T07:57:28.487808</EPOCH><MEAN_MOTION>14.75691181</MEAN_MOTION><ECCENTRICITY>.0004371</ECCENTRICITY><INCLINATION>48.4452</INCLINATION><RA_OF_ASC_NODE>192.5843</RA_OF_ASC_NODE><ARG_OF_PERICENTER>94.1992</ARG_OF_PERICENTER><MEAN_ANOMALY>69.5359</MEAN_ANOMALY></meanElements><tleParameters><EPHEMERIS_TYPE>0</EPHEMERIS_TYPE><CLASSIFICATION_TYPE>U</CLASSIFICATION_TYPE><NORAD_CAT_ID>33061</NORAD_CAT_ID><ELEMENT_SET_NO>999</ELEMENT_SET_NO><REV_AT_EPOCH>81721</REV_AT_EPOCH><BSTAR>.29132E-3</BSTAR><MEAN_MOTION_DOT>.1807E-4</MEAN_MOTION_DOT><MEAN_MOTION_DDOT>0</MEAN_MOTION_DDOT></tleParameters></data></segment></body></omm>
<omm id="CCSDS_OMM_VERS" version="2.0">
<header><CREATION_DATE/><ORIGINATOR/></header><body><segment><metadata><OBJECT_NAME>ORBCOMM FM29 [-]</OBJECT_NAME><OBJECT_ID>2008-031C</OBJECT_ID><CENTER_NAME>EARTH</CENTER_NAME><REF_FRAME>TEME</REF_FRAME><TIME_SYSTEM>UTC</TIME_SYSTEM><MEAN_ELEMENT_THEORY>SGP4</MEAN_ELEMENT_THEORY></metadata><data><meanElements><EPOCH>2023-09-01T03:42:48.743712</EPOCH><MEAN_MOTION>14.75563866</MEAN_MOTION><ECCENTRICITY>.0006218</ECCENTRICITY><INCLINATION>48.4394</INCLINATION><RA_OF_ASC_NODE>196.6546</RA_OF_ASC_NODE><ARG_OF_PERICENTER>96.8864</ARG_OF_PERICENTER><MEAN_ANOMALY>276.3612</MEAN_ANOMALY></meanElements><tleParameters><EPHEMERIS_TYPE>0</EPHEMERIS_TYPE><CLASSIFICATION_TYPE>U</CLASSIFICATION_TYPE><NORAD_CAT_ID>33062</NORAD_CAT_ID><ELEMENT_SET_NO>999</ELEMENT_SET_NO><REV_AT_EPOCH>81764</REV_AT_EPOCH><BSTAR>.29875E-3</BSTAR><MEAN_MOTION_DOT>.1853E-4</MEAN_MOTION_DOT><MEAN_MOTION_DDOT>0</MEAN_MOTION_DDOT></tleParameters></data></segment></body></omm>
<omm id="CCSDS_OMM_VERS" version="2.0">
<header><CREATION_DATE/><ORIGINATOR/></header><body><segment><metadata><OBJECT_NAME>ORBCOMM FM39 [-]</OBJECT_NAME><OBJECT_ID>2008-031D</OBJECT_ID><CENTER_NAME>EARTH</CENTER_NAME><REF_FRAME>TEME</REF_FRAME><TIME_SYSTEM>UTC</TIME_SYSTEM><MEAN_ELEMENT_THEORY>SGP4</MEAN_ELEMENT_THEORY></metadata><data><meanElements><EPOCH>2023-08-31T10:07:29.372736</EPOCH><MEAN_MOTION>14.74743459</MEAN_MOTION><ECCENTRICITY>.0007233</ECCENTRICITY><INCLINATION>48.4412</INCLINATION><RA_OF_ASC_NODE>218.9113</RA_OF_ASC_NODE><ARG_OF_PERICENTER>69.1499</ARG_OF_PERICENTER><MEAN_ANOMALY>291.0188</MEAN_ANOMALY></meanElements><tleParameters><EPHEMERIS_TYPE>0</EPHEMERIS_TYPE><CLASSIFICATION_TYPE>U</CLASSIFICATION_TYPE><NORAD_CAT_ID>33063</NORAD_CAT_ID><ELEMENT_SET_NO>999</ELEMENT_SET_NO><REV_AT_EPOCH>81686</REV_AT_EPOCH><BSTAR>.26577E-3</BSTAR><MEAN_MOTION_DOT>.1592E-4</MEAN_MOTION_DOT><MEAN_MOTION_DDOT>0</MEAN_MOTION_DDOT></tleParameters></data></segment></body></omm>

</ndm>
