ORBCOMM FM33 [-]        
1 25983U 99065D   23244.36437428  .00001080  00000+0  41103-3 0  9998
2 25983  45.0287 223.2362 0009329 359.3498 149.4126 14.36673547241874
ORBCOMM FM36 [-]        
1 25984U 99065E   23244.07059952  .00000839  00000+0  34401-3 0  9993
2 25984  45.0408 305.7814 0005495 249.7934 110.2322 14.34561928240831
ORBCOMM FM35 [+]        
1 25985U 99065F   23243.98258800  .00000699  00000+0  29671-3 0  9993
2 25985  45.0409 308.1826 0002669 321.8601  38.2057 14.34276449240820
ORBCOMM FM34 [-]        
1 25986U 99065G   23244.43256649  .00000801  00000+0  33312-3 0  9996
2 25986  45.0404 306.5207 0004890 284.0492  75.9811 14.34218273240857
ORBCOMM FM38 [-]        
1 33060U 08031A   23244.11070554  .00001730  00000+0  27867-3 0  9995
2 33060  48.4417 182.8394 0005231 113.1017 247.0448 14.75920241817811
ORBCOMM FM41 [-]        
1 33061U 08031B   23243.33157972  .00001807  00000+0  29132-3 0  9991
2 33061  48.4452 192.5843 0004371  94.1992  69.5359 14.75691181817212
ORBCOMM FM29 [-]        
1 33062U 08031C   23244.15473083  .00001853  00000+0  29875-3 0  9992
2 33062  48.4394 196.6546 0006218  96.8864 276.3612 14.75563866817647
ORBCOMM FM39 [-]        
1 33063U 08031D   23243.42186774  .00001592  00000+0  26577-3 0  9996
2 33063  48.4412 218.9113 0007233  69.1499 291.0188 14.74743459816864
